[{"OBJECT_NAME":"STARLINK-33802","OBJECT_ID":"2025-127Y","EPOCH":"2026-03-09T07:12:03.617568","MEAN_MOTION":15.27567178,"ECCENTRICITY":0.00022923,"INCLINATION":43.005,"RA_OF_ASC_NODE":182.3191,"ARG_OF_PERICENTER":253.0323,"MEAN_ANOMALY":107.0277,"EPHEMERIS_TYPE":0,"CLASSIFICATION_TYPE":"U","NORAD_CAT_ID":64392,"ELEMENT_SET_NO":999,"REV_AT_EPOCH":4245,"BSTAR":0.00061841549,"MEAN_MOTION_DOT":0.00016788,"MEAN_MOTION_DDOT":0},{"OBJECT_NAME":"COSMOS 1862","OBJECT_ID":"1987-055A","EPOCH":"2026-03-09T22:37:02.390592","MEAN_MOTION":15.30492139,"ECCENTRICITY":0.00097484,"INCLINATION":82.4856,"RA_OF_ASC_NODE":47.1862,"ARG_OF_PERICENTER":26.6325,"MEAN_ANOMALY":333.5414,"EPHEMERIS_TYPE":0,"CLASSIFICATION_TYPE":"U","NORAD_CAT_ID":18152,"ELEMENT_SET_NO":999,"REV_AT_EPOCH":8987,"BSTAR":0.00034125048,"MEAN_MOTION_DOT":0.00010107,"MEAN_MOTION_DDOT":0}]
